AL MUNTHER              
1 63240U 25052AG  26068.64540749  .00017933  00000+0  65015-3 0  9992
2 63240  97.4001 323.9152 0008027 130.7043 229.4895 15.28381521 54798
STARLINK-34377          
1 64279U 25120Z   26068.53285317  .00031252  00000+0  10630-2 0  9998
2 64279  53.1590 117.3068 0001518  91.6174 268.5000 15.30196282 43894
